{
    "links": {
        "self": "http://www.neowsapp.com/rest/v1/neo/54051176?api_key=iIulBulltgU6a56xZRHN4H3l9WmuAYTsLGpBGhQ2"
    },
    "id": "54051176",
    "neo_reference_id": "54051176",
    "name": "(2020 QD1)",
    "designation": "2020 QD1",
    "nasa_jpl_url": "http://ssd.jpl.nasa.gov/sbdb.cgi?sstr=54051176",
    "absolute_magnitude_h": 26.667,
    "estimated_diameter": {
        "kilometers": {
            "estimated_diameter_min": 0.0123354494,
            "estimated_diameter_max": 0.0275829034
        },
        "meters": {
            "estimated_diameter_min": 12.3354494129,
            "estimated_diameter_max": 27.5829034203
        },
        "miles": {
            "estimated_diameter_min": 0.0076648905,
            "estimated_diameter_max": 0.0171392163
        },
        "feet": {
            "estimated_diameter_min": 40.4706358519,
            "estimated_diameter_max": 90.4950928576
        }
    },
    "is_potentially_hazardous_asteroid": false,
    "close_approach_data": [
        {
            "close_approach_date": "2020-08-23",
            "close_approach_date_full": "2020-Aug-23 20:07",
            "epoch_date_close_approach": 1598213220000,
            "relative_velocity": {
                "kilometers_per_second": "13.463367015",
                "kilometers_per_hour": "48468.121254144",
                "miles_per_hour": "30116.205675943"
            },
            "miss_distance": {
                "astronomical": "0.025951247",
                "lunar": "10.095035083",
                "kilometers": "3882251.27504389",
                "miles": "2412319.081590082"
            },
            "orbiting_body": "Earth"
        }
    ],
    "orbital_data": {
        "orbit_id": "3",
        "orbit_determination_date": "2020-08-23 06:56:03",
        "first_observation_date": "2020-08-12",
        "last_observation_date": "2020-08-22",
        "data_arc_in_days": 10,
        "observations_used": 33,
        "orbit_uncertainty": "8",
        "minimum_orbit_intersection": ".00409795",
        "jupiter_tisserand_invariant": "3.500",
        "epoch_osculation": "2459075.5",
        "eccentricity": ".5912834717097567",
        "semi_major_axis": "2.102468774231565",
        "inclination": ".4787911441746977",
        "ascending_node_longitude": "285.3123848909676",
        "orbital_period": "1113.506504947773",
        "perihelion_distance": ".8593137382425685",
        "perihelion_argument": "101.6624734690687",
        "aphelion_distance": "3.345623810220561",
        "perihelion_time": "2459124.869114607306",
        "mean_anomaly": "344.0388168549911",
        "mean_motion": ".3233030057753323",
        "equinox": "J2000",
        "orbit_class": {
            "orbit_class_type": "APO",
            "orbit_class_description": "Near-Earth asteroid orbits which cross the Earth’s orbit similar to that of 1862 Apollo",
            "orbit_class_range": "a (semi-major axis) > 1.0 AU; q (perihelion) < 1.017 AU"
        }
    },
    "is_sentry_object": false
}